H1 CPF 01  gfz 2021 04 09 00  5991 terrasarx 
H2 0702601  6201 31698    2021 04 09 00 59 42 2021 04 14 00 00 42   120 1 1  0 0 0
H9
10 0 59315  62622.000000  0    5802279.637   1417289.334  -3441095.164
10 0 59315  62742.000000  0    6231203.848   1324692.349  -2631380.885
10 0 59315  62862.000000  0    6549609.118   1202460.744  -1775464.721
10 0 59315  62982.000000  0    6751358.421   1054694.433   -888347.575
10 0 59315  63102.000000  0    6832436.048    886034.377     14392.017
10 0 59315  63222.000000  0    6791034.520    701544.193    916877.486
10 0 59315  63342.000000  0    6627599.382    506582.435   1803220.360
10 0 59315  63462.000000  0    6344828.769    306667.560   2657809.936
10 0 59315  63582.000000  0    5947625.468    107340.583   3465596.732
10 0 59315  63702.000000  0    5443005.546    -85972.088   4212364.354
10 0 59315  63822.000000  0    4839965.463   -268089.969   4884982.555
10 0 59315  63942.000000  0    4149312.501   -434203.609   5471640.372
10 0 59315  64062.000000  0    3383459.464   -579989.113   5962050.921
10 0 59315  64182.000000  0    2556193.291   -701708.594   6347626.900
10 0 59315  64302.000000  0    1682420.818   -796296.338   6621625.089
10 0 59315  64422.000000  0     777896.148   -861428.482   6779259.527
10 0 59315  64542.000000  0    -141066.535   -895574.933   6817779.565
10 0 59315  64662.000000  0   -1057887.124   -898032.629   6736513.547
10 0 59315  64782.000000  0   -1956017.382   -868939.824   6536879.172
10 0 59315  64902.000000  0   -2819237.867   -809270.501   6222359.954
10 0 59315  65022.000000  0   -3631950.186   -720809.469   5798449.586
10 0 59315  65142.000000  0   -4379462.028   -606108.810   5272562.910
10 0 59315  65262.000000  0   -5048258.944   -468426.512   4653912.524
10 0 59315  65382.000000  0   -5626256.390   -311647.821   3953351.956
10 0 59315  65502.000000  0   -6103026.787   -140191.047   3183188.142
10 0 59315  65622.000000  0   -6469997.075     41100.381   2356967.238
10 0 59315  65742.000000  0   -6720613.638    227077.719   1489234.986
10 0 59315  65862.000000  0   -6850468.062    412414.646    595275.421
10 0 59315  65982.000000  0   -6857380.348    591740.159   -309166.130
10 0 59315  66102.000000  0   -6741436.683    759773.662  -1208169.730
10 0 59315  66222.000000  0   -6504980.499    911458.139  -2085929.591
10 0 59315  66342.000000  0   -6152560.456   1042088.117  -2927038.251
10 0 59315  66462.000000  0   -5690834.683   1147430.200  -3716764.479
10 0 59315  66582.000000  0   -5128431.176   1223831.512  -4441313.340
10 0 59315  66702.000000  0   -4475773.612   1268314.349  -5088064.509
10 0 59315  66822.000000  0   -3744875.979   1278654.877  -5645785.650
10 0 59315  66942.000000  0   -2949112.315   1253444.429  -6104817.917
10 0 59315  67062.000000  0   -2102966.266   1192131.738  -6457232.300
10 0 59315  67182.000000  0   -1221765.007   1095047.415  -6696955.353
10 0 59315  67302.000000  0    -321402.836    963408.987  -6819862.184
10 0 59315  67422.000000  0     581939.346    799306.963  -6823838.672
10 0 59315  67542.000000  0    1472076.734    605672.439  -6708815.788
10 0 59315  67662.000000  0    2333105.295    386225.787  -6476771.715
10 0 59315  67782.000000  0    3149679.938    145407.879  -6131701.139
10 0 59315  67902.000000  0    3907284.616   -111705.411  -5679553.286
10 0 59315  68022.000000  0    4592488.296   -379504.987  -5128138.834
10 0 59315  68142.000000  0    5193186.294   -651964.004  -4487007.632
10 0 59315  68262.000000  0    5698821.686   -922766.165  -3767293.806
10 0 59315  68382.000000  0    6100580.380  -1185443.920  -2981531.356
10 0 59315  68502.000000  0    6391556.445  -1433524.244  -2143442.263
10 0 59315  68622.000000  0    6566883.482  -1660678.466  -1267699.487
10 0 59315  68742.000000  0    6623827.214  -1860872.266   -369668.799
10 0 59315  68862.000000  0    6561836.972  -2028512.253    534865.041
10 0 59315  68982.000000  0    6382553.853  -2158585.543   1429983.389
10 0 59315  69102.000000  0    6089773.919  -2246787.983   2299922.741
10 0 59315  69222.000000  0    5689368.047  -2289638.551   3129361.449
10 0 59315  69342.000000  0    5189159.646  -2284575.486   3903697.603
10 0 59315  69462.000000  0    4598763.816  -2230032.896   4609310.296
10 0 59315  69582.000000  0    3929395.305  -2125495.483   5233800.722
10 0 59315  69702.000000  0    3193647.133  -1971531.473   5766210.995
10 0 59315  69822.000000  0    2405244.253  -1769801.755   6197212.747
10 0 59315  69942.000000  0    1578781.555  -1523045.917   6519264.712
10 0 59315  70062.000000  0     729449.427  -1235046.036   6726738.888
10 0 59315  70182.000000  0    -127247.929   -910567.976   6816013.105
10 0 59315  70302.000000  0    -975775.496   -555281.619   6785529.214
10 0 59315  70422.000000  0   -1800847.677   -175661.975   6635818.144
10 0 59315  70542.000000  0   -2587702.293    221128.413   6369491.319
10 0 59315  70662.000000  0   -3322364.285    627373.670   5991198.771
10 0 59315  70782.000000  0   -3991895.860   1034953.070   5507553.750
10 0 59315  70902.000000  0   -4584629.253   1435501.478   4927023.476
10 0 59315  71022.000000  0   -5090376.772   1820579.748   4259786.564
10 0 59315  71142.000000  0   -5500614.029   2181851.314   3517558.501
10 0 59315  71262.000000  0   -5808631.489   2511260.835   2713388.049
10 0 59315  71382.000000  0   -6009652.237   2801211.315   1861428.026
10 0 59315  71502.000000  0   -6100913.098   3044735.706    976683.032
10 0 59315  71622.000000  0   -6081704.849   3235658.191     74737.869
10 0 59315  71742.000000  0   -5953370.117   3368740.562   -828525.136
10 0 59315  71862.000000  0   -5719260.543   3439809.885  -1717214.563
10 0 59315  71982.000000  0   -5384653.624   3445865.061  -2575718.960
10 0 59315  72102.000000  0   -4956629.496   3385158.253  -3388988.201
10 0 59315  72222.000000  0   -4443913.889   3257250.174  -4142800.861
10 0 59315  72342.000000  0   -3856691.095   3063037.963  -4824011.743
10 0 59315  72462.000000  0   -3206393.207   2804755.950  -5420776.160
10 0 59315  72582.000000  0   -2505471.514   2485950.025  -5922746.680
10 0 59315  72702.000000  0   -1767154.500   2111427.169  -6321243.326
10 0 59315  72822.000000  0   -1005195.697   1687179.695  -6609391.983
10 0 59315  72942.000000  0    -233619.799   1220287.834  -6782231.256
10 0 59315  73062.000000  0     533530.642    718801.654  -6836788.381
10 0 59315  73182.000000  0    1282443.987    191605.059  -6772126.074
10 0 59315  73302.000000  0    1999783.753   -351738.595  -6589357.207
10 0 59315  73422.000000  0    2672920.192   -901155.541  -6291626.767
10 0 59315  73542.000000  0    3290149.322  -1446243.514  -5884063.956
10 0 59315  73662.000000  0    3840894.857  -1976463.357  -5373702.706
10 0 59315  73782.000000  0    4315892.355  -2481339.937  -4769372.347
10 0 59315  73902.000000  0    4707350.076  -2950668.331  -4081555.240
10 0 59315  74022.000000  0    5009083.156  -3374719.821  -3322214.968
10 0 59315  74142.000000  0    5216620.011  -3744444.325  -2504596.467
10 0 59315  74262.000000  0    5327277.102  -4051664.941  -1642998.940
10 0 59315  74382.000000  0    5340198.717  -4289259.207   -752526.355
10 0 59315  74502.000000  0    5256360.991  -4451323.109    151180.516
10 0 59315  74622.000000  0    5078538.832  -4533313.402   1052225.342
10 0 59315  74742.000000  0    4811235.214  -4532162.504   1934744.794
10 0 59315  74862.000000  0    4460575.592  -4446363.473   2783196.765
10 0 59315  74982.000000  0    4034170.650  -4276022.926   3582641.706
10 0 59315  75102.000000  0    3540950.432  -4022881.876   4319011.921
10 0 59315  75222.000000  0    2990973.258  -3690302.662   4979363.087
10 0 59315  75342.000000  0    2395216.069  -3283222.432   5552101.830
10 0 59315  75462.000000  0    1765351.155  -2808076.067   6027187.566
10 0 59315  75582.000000  0    1113513.019  -2272689.018   6396303.559
10 0 59315  75702.000000  0     452062.237  -1686144.392   6652996.160
10 0 59315  75822.000000  0    -206650.052  -1058626.101   6792781.516
10 0 59315  75942.000000  0    -850512.076   -401240.072   6813219.014
10 0 59315  76062.000000  0   -1467872.994    274182.605   6713950.835
10 0 59315  76182.000000  0   -2047752.967    955298.089   6496707.863
10 0 59315  76302.000000  0   -2580038.164   1629474.455   6165281.473
10 0 59315  76422.000000  0   -3055657.978   2284025.092   5725461.666
10 0 59315  76542.000000  0   -3466742.062   2906447.966   5184942.576
10 0 59315  76662.000000  0   -3806754.807   3484666.541   4553193.910
10 0 59315  76782.000000  0   -4070604.021   4007267.298   3841300.438
10 0 59315  76902.000000  0   -4254721.484   4463730.160   3061771.302
10 0 59315  77022.000000  0   -4357113.199   4844645.961   2228320.478
10 0 59315  77142.000000  0   -4377376.803   5141914.801   1355622.579
10 0 59315  77262.000000  0   -4316687.308   5348920.383    459049.633
10 0 59315  77382.000000  0   -4177751.441   5460677.044   -445606.389
10 0 59315  77502.000000  0   -3964729.841   5473945.811  -1342421.609
10 0 59315  77622.000000  0   -3683128.723   5387312.337  -2215631.253
10 0 59315  77742.000000  0   -3339664.540   5201228.384  -3049913.704
10 0 59315  77862.000000  0   -2942106.342   4918015.444  -3830664.656
10 0 59315  77982.000000  0   -2499100.155   4541829.757  -4544253.265
10 0 59315  78102.000000  0   -2019980.021   4078592.532  -5178255.985
10 0 59315  78222.000000  0   -1514571.414   3535888.899  -5721665.132
10 0 59315  78342.000000  0    -992990.431   2922836.204  -6165071.885
10 0 59315  78462.000000  0    -465442.390   2249923.870  -6500818.741
10 0 59315  78582.000000  0      57975.072   1528830.524  -6723119.636
10 0 59315  78702.000000  0     567460.427    772221.477  -6828149.793
10 0 59315  78822.000000  0    1053687.515     -6470.420  -6814105.124
10 0 59315  78942.000000  0    1507972.517   -793279.099  -6681229.371
10 0 59315  79062.000000  0    1922424.719  -1573949.642  -6431808.864
99
